[
    {
        "Altitude(m)": 604969.0892291679,
        "Argument of Periapsis(deg)": 0.0,
        "Eccentricity": 0.0,
        "Inclination(deg)": 60.0,
        "Latitude(deg)": -0.09273817608161117,
        "Longitude(deg)": -105.02247243977786,
        "Mean Anomaly(deg)": 0.0,
        "RAAN(deg)": 355.0,
        "Satellite Name": "Test1 1562",
        "Satellite Number": 1562,
        "Semi-Major Axis(m)": 6980739.136638005,
        "Time(s)": 0
    },
    {
        "Altitude(m)": 604900.0281836872,
        "Argument of Periapsis(deg)": 0.00010418945913296404,
        "Eccentricity": 0.0,
        "Inclination(deg)": 60.0,
        "Latitude(deg)": 0.4476875891623178,
        "Longitude(deg)": -104.7543491526838,
        "Mean Anomaly(deg)": 0.620106145461853,
        "RAAN(deg)": 354.99957995086027,
        "Satellite Name": "Test1 1562",
        "Satellite Number": 1562,
        "Semi-Major Axis(m)": 6980739.136638005,
        "Time(s)": 10
    }
]